{
  "norad_id": 59189,
  "name": "STARLINK-31498",
  "history": [
    {
      "epoch": "2026-03-28T16:31:16.356864Z",
      "apogee_km": 483.66786131660774,
      "perigee_km": 482.45809453649963,
      "latitude_deg": -2.295042612719032e-06,
      "longitude_deg": -88.38839388608898,
      "height_km": 482.7375917786668,
      "semi_major_axis_km": 6861.199977926553,
      "eccentricity": 8.816e-05,
      "inclination_deg": 43.0025,
      "raan_deg": 345.535,
      "arg_perigee_deg": 279.7006,
      "mean_anomaly_deg": 80.3746,
      "mean_motion_rev_day": 15.27575364
    },
    {
      "epoch": "2026-03-29T01:56:11.894208Z",
      "apogee_km": 483.687700763473,
      "perigee_km": 482.3785894997827,
      "latitude_deg": 9.014937052933305e-06,
      "longitude_deg": 127.77863464562027,
      "height_km": 482.7423282757992,
      "semi_major_axis_km": 6861.170145131628,
      "eccentricity": 9.54e-05,
      "inclination_deg": 43.0016,
      "raan_deg": 343.3201,
      "arg_perigee_deg": 275.903,
      "mean_anomaly_deg": 84.1713,
      "mean_motion_rev_day": 15.27585327
    },
    {
      "epoch": "2026-03-30T01:28:33.072960Z",
      "apogee_km": 483.83147156219184,
      "perigee_km": 482.2561444486737,
      "latitude_deg": -2.7290925824840838e-05,
      "longitude_deg": 128.1840304036021,
      "height_km": 482.76270296542623,
      "semi_major_axis_km": 6861.1808080054325,
      "eccentricity": 0.0001148,
      "inclination_deg": 43.0007,
      "raan_deg": 337.7805,
      "arg_perigee_deg": 274.1995,
      "mean_anomaly_deg": 85.8725,
      "mean_motion_rev_day": 15.27581766
    },
    {
      "epoch": "2026-03-30T01:28:33.073824Z",
      "apogee_km": 483.83147156219184,
      "perigee_km": 482.2561444486737,
      "latitude_deg": -2.7290926104779478e-05,
      "longitude_deg": 128.18402679374734,
      "height_km": 482.76270296542725,
      "semi_major_axis_km": 6861.1808080054325,
      "eccentricity": 0.0001148,
      "inclination_deg": 43.0007,
      "raan_deg": 337.7805,
      "arg_perigee_deg": 274.1995,
      "mean_anomaly_deg": 85.8725,
      "mean_motion_rev_day": 15.27581766
    },
    {
      "epoch": "2026-03-30T09:19:20.853984Z",
      "apogee_km": 483.7383870408894,
      "perigee_km": 482.41623104353766,
      "latitude_deg": -2.5441789798411177e-05,
      "longitude_deg": 8.317096500262535,
      "height_km": 482.8120649315494,
      "semi_major_axis_km": 6861.214309042213,
      "eccentricity": 9.635e-05,
      "inclination_deg": 42.9987,
      "raan_deg": 335.9349,
      "arg_perigee_deg": 273.5935,
      "mean_anomaly_deg": 86.4806,
      "mean_motion_rev_day": 15.27570578
    },
    {
      "epoch": "2026-03-30T23:26:44.858976Z",
      "apogee_km": 483.88410971877875,
      "perigee_km": 482.20092515956094,
      "latitude_deg": -1.1312304412282243e-05,
      "longitude_deg": 152.56246670445185,
      "height_km": 482.84689869722763,
      "semi_major_axis_km": 6861.17951743917,
      "eccentricity": 0.00012266,
      "inclination_deg": 43.0029,
      "raan_deg": 332.6103,
      "arg_perigee_deg": 268.1271,
      "mean_anomaly_deg": 91.944,
      "mean_motion_rev_day": 15.27582197
    },
    {
      "epoch": "2026-03-31T01:00:54.232704Z",
      "apogee_km": 483.7872874892837,
      "perigee_km": 482.2997835491824,
      "latitude_deg": -1.855791908202945e-06,
      "longitude_deg": 128.58977202573683,
      "height_km": 482.89279550418007,
      "semi_major_axis_km": 6861.180535519233,
      "eccentricity": 0.0001084,
      "inclination_deg": 43.0026,
      "raan_deg": 332.2411,
      "arg_perigee_deg": 264.402,
      "mean_anomaly_deg": 95.6708,
      "mean_motion_rev_day": 15.27581857
    },
    {
      "epoch": "2026-03-31T22:59:06.335808Z",
      "apogee_km": 483.69835324887936,
      "perigee_km": 482.46086422132794,
      "latitude_deg": -5.934801704238707e-06,
      "longitude_deg": 152.96816234553475,
      "height_km": 482.93331139554317,
      "semi_major_axis_km": 6861.216608735103,
      "eccentricity": 9.018e-05,
      "inclination_deg": 43.0004,
      "raan_deg": 327.0722,
      "arg_perigee_deg": 262.8138,
      "mean_anomaly_deg": 97.2611,
      "mean_motion_rev_day": 15.2756981
    },
    {
      "epoch": "2026-04-02T07:56:22.981920Z",
      "apogee_km": 483.72410052541636,
      "perigee_km": 482.4024961239538,
      "latitude_deg": -6.656725338193494e-06,
      "longitude_deg": 9.53900598636255,
      "height_km": 482.69120756617605,
      "semi_major_axis_km": 6861.200298324685,
      "eccentricity": 9.631e-05,
      "inclination_deg": 43.0038,
      "raan_deg": 319.3158,
      "arg_perigee_deg": 283.0172,
      "mean_anomaly_deg": 77.0572,
      "mean_motion_rev_day": 15.27575257
    },
    {
      "epoch": "2026-04-02T22:03:46.677600Z",
      "apogee_km": 483.85611431492543,
      "perigee_km": 482.19406641015667,
      "latitude_deg": 1.0638276220822698e-05,
      "longitude_deg": 153.78537162270516,
      "height_km": 482.627243777266,
      "semi_major_axis_km": 6861.162090362541,
      "eccentricity": 0.00012112,
      "inclination_deg": 42.9992,
      "raan_deg": 315.9909,
      "arg_perigee_deg": 282.1072,
      "mean_anomaly_deg": 77.9644,
      "mean_motion_rev_day": 15.27588017
    },
    {
      "epoch": "2026-04-03T15:19:31.140768Z",
      "apogee_km": 483.6212049958449,
      "perigee_km": 482.46578220072206,
      "latitude_deg": 2.469854980605221e-05,
      "longitude_deg": -109.91861613350194,
      "height_km": 482.8801938271125,
      "semi_major_axis_km": 6861.180493598283,
      "eccentricity": 8.42e-05,
      "inclination_deg": 42.9991,
      "raan_deg": 311.9311,
      "arg_perigee_deg": 263.979,
      "mean_anomaly_deg": 96.0966,
      "mean_motion_rev_day": 15.27581871
    },
    {
      "epoch": "2026-04-04T21:08:28.555584Z",
      "apogee_km": 483.50777490104156,
      "perigee_km": 482.49644299638385,
      "latitude_deg": 2.120105617319809e-05,
      "longitude_deg": 154.60205337465337,
      "height_km": 482.957771235381,
      "semi_major_axis_km": 6861.139108948712,
      "eccentricity": 7.37e-05,
      "inclination_deg": 43.0,
      "raan_deg": 304.9155,
      "arg_perigee_deg": 249.1942,
      "mean_anomaly_deg": 110.8831,
      "mean_motion_rev_day": 15.27595692
    },
    {
      "epoch": "2026-04-05T06:33:25.041600Z",
      "apogee_km": 483.5371699718844,
      "perigee_km": 482.59169641438984,
      "latitude_deg": 1.791314585075729e-05,
      "longitude_deg": 10.762502192144929,
      "height_km": 482.8545283986871,
      "semi_major_axis_km": 6861.201433193137,
      "eccentricity": 6.89e-05,
      "inclination_deg": 43.004,
      "raan_deg": 302.698,
      "arg_perigee_deg": 268.3545,
      "mean_anomaly_deg": 91.7228,
      "mean_motion_rev_day": 15.27574878
    },
    {
      "epoch": "2026-04-05T20:40:49.690272Z",
      "apogee_km": 483.9348099115505,
      "perigee_km": 482.1989253330421,
      "latitude_deg": -3.583430610674866e-05,
      "longitude_deg": 155.0064089357975,
      "height_km": 483.0413404016121,
      "semi_major_axis_km": 6861.2038676222965,
      "eccentricity": 0.0001265,
      "inclination_deg": 43.0025,
      "raan_deg": 299.3747,
      "arg_perigee_deg": 256.8365,
      "mean_anomaly_deg": 103.2345,
      "mean_motion_rev_day": 15.27574065
    },
    {
      "epoch": "2026-04-05T23:49:07.195296Z",
      "apogee_km": 484.1795207637142,
      "perigee_km": 481.8498853144647,
      "latitude_deg": 4.31631689456352e-05,
      "longitude_deg": 107.06707421458513,
      "height_km": 482.6589500158156,
      "semi_major_axis_km": 6861.151703039089,
      "eccentricity": 0.00016977,
      "inclination_deg": 43.004,
      "raan_deg": 298.6371,
      "arg_perigee_deg": 276.5636,
      "mean_anomaly_deg": 83.5023,
      "mean_motion_rev_day": 15.27591486
    },
    {
      "epoch": "2026-04-07T05:38:07.204704Z",
      "apogee_km": 483.6772970732454,
      "perigee_km": 482.464235540162,
      "latitude_deg": -4.344482976765245e-07,
      "longitude_deg": 11.575458247753478,
      "height_km": 482.7780129698305,
      "semi_major_axis_km": 6861.207766306703,
      "eccentricity": 8.84e-05,
      "inclination_deg": 43.0038,
      "raan_deg": 291.6201,
      "arg_perigee_deg": 276.5739,
      "mean_anomaly_deg": 83.5012,
      "mean_motion_rev_day": 15.27572763
    },
    {
      "epoch": "2026-04-07T19:45:30.889152Z",
      "apogee_km": 483.80321995017493,
      "perigee_km": 482.2759220454718,
      "latitude_deg": -3.331996243261169e-05,
      "longitude_deg": 155.8217151676262,
      "height_km": 482.6416775351401,
      "semi_major_axis_km": 6861.176570997824,
      "eccentricity": 0.0001113,
      "inclination_deg": 43.0047,
      "raan_deg": 288.2951,
      "arg_perigee_deg": 283.2384,
      "mean_anomaly_deg": 76.8343,
      "mean_motion_rev_day": 15.27583181
    },
    {
      "epoch": "2026-04-08T13:01:15.319488Z",
      "apogee_km": 483.8490785431022,
      "perigee_km": 482.33288438375894,
      "latitude_deg": 3.293703795426133e-05,
      "longitude_deg": -107.882381956958,
      "height_km": 482.7960026557354,
      "semi_major_axis_km": 6861.22798146343,
      "eccentricity": 0.00011049,
      "inclination_deg": 42.9996,
      "raan_deg": 284.235,
      "arg_perigee_deg": 275.4035,
      "mean_anomaly_deg": 84.6691,
      "mean_motion_rev_day": 15.27566012
    },
    {
      "epoch": "2026-04-09T20:24:22.823424Z",
      "apogee_km": 483.75831260319137,
      "perigee_km": 482.3737218343167,
      "latitude_deg": -2.564241109440654e-05,
      "longitude_deg": 132.66213197875254,
      "height_km": 482.89923925718944,
      "semi_major_axis_km": 6861.203017218753,
      "eccentricity": 0.0001009,
      "inclination_deg": 43.0001,
      "raan_deg": 276.8498,
      "arg_perigee_deg": 265.2896,
      "mean_anomaly_deg": 94.784,
      "mean_motion_rev_day": 15.27574349
    },
    {
      "epoch": "2026-04-10T04:15:09.668736Z",
      "apogee_km": 483.7525134328853,
      "perigee_km": 482.3702564062596,
      "latitude_deg": 2.8985106114845143e-05,
      "longitude_deg": 12.79836260061328,
      "height_km": 482.8950469306105,
      "semi_major_axis_km": 6861.198384919572,
      "eccentricity": 0.00010073,
      "inclination_deg": 43.0002,
      "raan_deg": 275.0034,
      "arg_perigee_deg": 265.2453,
      "mean_anomaly_deg": 94.8284,
      "mean_motion_rev_day": 15.27575896
    },
    {
      "epoch": "2026-04-11T19:29:04.951104Z",
      "apogee_km": 484.0488724871602,
      "perigee_km": 482.11675298789214,
      "latitude_deg": 4.890433168177709e-05,
      "longitude_deg": 133.47553548503095,
      "height_km": 482.86699459158456,
      "semi_major_axis_km": 6861.219812737526,
      "eccentricity": 0.0001408,
      "inclination_deg": 43.0022,
      "raan_deg": 265.7721,
      "arg_perigee_deg": 269.571,
      "mean_anomaly_deg": 90.4981,
      "mean_motion_rev_day": 15.2756874
    },
    {
      "epoch": "2026-04-12T22:09:43.360128Z",
      "apogee_km": 483.8719840625363,
      "perigee_km": 482.19031174948486,
      "latitude_deg": -2.4595684860649238e-05,
      "longitude_deg": 85.939919488839,
      "height_km": 482.762070509648,
      "semi_major_axis_km": 6861.168147906011,
      "eccentricity": 0.00012255,
      "inclination_deg": 42.9997,
      "raan_deg": 259.4922,
      "arg_perigee_deg": 273.1092,
      "mean_anomaly_deg": 86.9619,
      "mean_motion_rev_day": 15.27585994
    }
  ]
}